{"type": "FeatureCollection", "features": [{"type": "Feature", "properties": {"km": 0, "label": "KM 0", "road": "SP-021"}, "geometry": {"type": "Point", "coordinates": [-46.73676819732765, -23.41620665170857]}}, {"type": "Feature", "properties": {"km": 1, "label": "KM 1", "road": "SP-021"}, "geometry": {"type": "Point", "coordinates": [-46.74299851724102, -23.41973121893507]}}, {"type": "Feature", "properties": {"km": 2, "label": "KM 2", "road": "SP-021"}, "geometry": {"type": "Point", "coordinates": [-46.75678815477439, -23.43174918231973]}}, {"type": "Feature", "properties": {"km": 3, "label": "KM 3", "road": "SP-021"}, "geometry": {"type": "Point", "coordinates": [-46.7510485663054, -23.42468896201085]}}, {"type": "Feature", "properties": {"km": 4, "label": "KM 4", "road": "SP-021"}, "geometry": {"type": "Point", "coordinates": [-46.76487760846809, -23.4366334602237]}}, {"type": "Feature", "properties": {"km": 5, "label": "KM 5", "road": "SP-021"}, "geometry": {"type": "Point", "coordinates": [-46.77319354505408, -23.44157792263285]}}, {"type": "Feature", "properties": {"km": 6, "label": "KM 6", "road": "SP-021"}, "geometry": {"type": "Point", "coordinates": [-46.78093069460331, -23.44710643126758]}}, {"type": "Feature", "properties": {"km": 7, "label": "KM 7", "road": "SP-021"}, "geometry": {"type": "Point", "coordinates": [-46.78947988398041, -23.45401581082502]}}, {"type": "Feature", "properties": {"km": 8, "label": "KM 8", "road": "SP-021"}, "geometry": {"type": "Point", "coordinates": [-46.79485818355642, -23.46057786451431]}}, {"type": "Feature", "properties": {"km": 9, "label": "KM 9", "road": "SP-021"}, "geometry": {"type": "Point", "coordinates": [-46.79999545774143, -23.46872183589873]}}, {"type": "Feature", "properties": {"km": 10, "label": "KM 10", "road": "SP-021"}, "geometry": {"type": "Point", "coordinates": [-46.80189111364098, -23.4764023868824]}}, {"type": "Feature", "properties": {"km": 11, "label": "KM 11", "road": "SP-021"}, "geometry": {"type": "Point", "coordinates": [-46.80352149154505, -23.48416900127748]}}, {"type": "Feature", "properties": {"km": 12, "label": "KM 12", "road": "SP-021"}, "geometry": {"type": "Point", "coordinates": [-46.81036727570424, -23.49207921736694]}}, {"type": "Feature", "properties": {"km": 13, "label": "KM 13", "road": "SP-021"}, "geometry": {"type": "Point", "coordinates": [-46.81759135356197, -23.49770190771368]}}, {"type": "Feature", "properties": {"km": 14, "label": "KM 14", "road": "SP-021"}, "geometry": {"type": "Point", "coordinates": [-46.82169397241566, -23.50555499830523]}}, {"type": "Feature", "properties": {"km": 15, "label": "KM 15", "road": "SP-021"}, "geometry": {"type": "Point", "coordinates": [-46.81782691424377, -23.51343800434936]}}, {"type": "Feature", "properties": {"km": 16, "label": "KM 16", "road": "SP-021"}, "geometry": {"type": "Point", "coordinates": [-46.81626054596568, -23.52170563744173]}}, {"type": "Feature", "properties": {"km": 17, "label": "KM 17", "road": "SP-021"}, "geometry": {"type": "Point", "coordinates": [-46.81788482709296, -23.53048545412375]}}, {"type": "Feature", "properties": {"km": 18, "label": "KM 18", "road": "SP-021"}, "geometry": {"type": "Point", "coordinates": [-46.81780057300437, -23.53946643257767]}}, {"type": "Feature", "properties": {"km": 19, "label": "KM 19", "road": "SP-021"}, "geometry": {"type": "Point", "coordinates": [-46.8204873589343, -23.54819901151217]}}, {"type": "Feature", "properties": {"km": 20, "label": "KM 20", "road": "SP-021"}, "geometry": {"type": "Point", "coordinates": [-46.81942285592882, -23.55701581063191]}}, {"type": "Feature", "properties": {"km": 21, "label": "KM 21", "road": "SP-021"}, "geometry": {"type": "Point", "coordinates": [-46.81932220393983, -23.56590117894929]}}, {"type": "Feature", "properties": {"km": 22, "label": "KM 22", "road": "SP-021"}, "geometry": {"type": "Point", "coordinates": [-46.81229919156129, -23.57180008402659]}}, {"type": "Feature", "properties": {"km": 23, "label": "KM 23", "road": "SP-021"}, "geometry": {"type": "Point", "coordinates": [-46.80871172957502, -23.58008427648159]}}, {"type": "Feature", "properties": {"km": 24, "label": "KM 24", "road": "SP-021"}, "geometry": {"type": "Point", "coordinates": [-46.80937006832517, -23.58879929205679]}}, {"type": "Feature", "properties": {"km": 25, "label": "KM 25", "road": "SP-021"}, "geometry": {"type": "Point", "coordinates": [-46.81417124344074, -23.60663104010733]}}, {"type": "Feature", "properties": {"km": 26, "label": "KM 26", "road": "SP-021"}, "geometry": {"type": "Point", "coordinates": [-46.82046431945657, -23.61317607363064]}}, {"type": "Feature", "properties": {"km": 27, "label": "KM 27", "road": "SP-021"}, "geometry": {"type": "Point", "coordinates": [-46.82756353605118, -23.61844717840223]}}, {"type": "Feature", "properties": {"km": 28, "label": "KM 28", "road": "SP-021"}, "geometry": {"type": "Point", "coordinates": [-46.82950912590344, -23.62733019359985]}}, {"type": "Feature", "properties": {"km": 29, "label": "KM 29", "road": "SP-021"}, "geometry": {"type": "Point", "coordinates": [-46.83184134075487, -23.63253885917052]}}]}