{
 "type": "FeatureCollection",
 "features": [
  {
   "type": "Feature",
   "properties": {
    "rodovia": "SP-021",
    "kmFrom": 0,
    "kmTo": 29,
    "source": "marco_km.geojson, ordered by km",
    "accuracy": "vertices average 1066 m apart; good enough to name a road, never to place a km"
   },
   "geometry": {
    "type": "LineString",
    "coordinates": [
     [
      -46.73676819732765,
      -23.41620665170857
     ],
     [
      -46.74299851724102,
      -23.41973121893507
     ],
     [
      -46.75678815477439,
      -23.43174918231973
     ],
     [
      -46.7510485663054,
      -23.42468896201085
     ],
     [
      -46.76487760846809,
      -23.4366334602237
     ],
     [
      -46.77319354505408,
      -23.44157792263285
     ],
     [
      -46.78093069460331,
      -23.44710643126758
     ],
     [
      -46.78947988398041,
      -23.45401581082502
     ],
     [
      -46.79485818355642,
      -23.46057786451431
     ],
     [
      -46.79999545774143,
      -23.46872183589873
     ],
     [
      -46.80189111364098,
      -23.4764023868824
     ],
     [
      -46.80352149154505,
      -23.48416900127748
     ],
     [
      -46.81036727570424,
      -23.49207921736694
     ],
     [
      -46.81759135356197,
      -23.49770190771368
     ],
     [
      -46.82169397241566,
      -23.50555499830523
     ],
     [
      -46.81782691424377,
      -23.51343800434936
     ],
     [
      -46.81626054596568,
      -23.52170563744173
     ],
     [
      -46.81788482709296,
      -23.53048545412375
     ],
     [
      -46.81780057300437,
      -23.53946643257767
     ],
     [
      -46.8204873589343,
      -23.54819901151217
     ],
     [
      -46.81942285592882,
      -23.55701581063191
     ],
     [
      -46.81932220393983,
      -23.56590117894929
     ],
     [
      -46.81229919156129,
      -23.57180008402659
     ],
     [
      -46.80871172957502,
      -23.58008427648159
     ],
     [
      -46.80937006832517,
      -23.58879929205679
     ],
     [
      -46.81417124344074,
      -23.60663104010733
     ],
     [
      -46.82046431945657,
      -23.61317607363064
     ],
     [
      -46.82756353605118,
      -23.61844717840223
     ],
     [
      -46.82950912590344,
      -23.62733019359985
     ],
     [
      -46.83184134075487,
      -23.63253885917052
     ]
    ]
   }
  }
 ]
}
